NORAD_CAT_ID,OBJECT_NAME,OBJECT_TYPE,EPOCH,MEAN_MOTION,ECCENTRICITY,INCLINATION,RA_OF_ASC_NODE,ARG_OF_PERICENTER,MEAN_ANOMALY,BSTAR,MEAN_MOTION_DOT,MEAN_MOTION_DDOT,TLE_LINE0,TLE_LINE1,TLE_LINE2,SEMIMAJOR_AXIS,PERIOD,APOGEE,PERIGEE,DECAYED
52335.0,STARLINK-3814,PAYLOAD,2022-05-04 18:00:02,15.83427779,0.0001056,53.2175,52.408,60.9906,350.3222,-0.0043569,-0.00877502,0.0,0 STARLINK-3814,1 52335U 22045E   22124.75002315 -.00877502  00000-0 -43569-2 0  9995,2 52335  53.2175  52.4080 0001056  60.9906 350.3222 15.83427779  3311,6698.892,90.942,321.465,320.05,0.0
52335.0,STARLINK-3814,PAYLOAD,2022-05-05 14:00:01,15.81853189,0.0001114,53.2174,48.2267,61.6724,60.2393,-0.0046729,-0.00873876,0.0,0 STARLINK-3814,1 52335U 22045E   22125.58334491 -.00873876  00000-0 -46729-2 0  9991,2 52335  53.2174  48.2267 0001114  61.6724  60.2393 15.81853189  3447,6703.337,91.032,325.949,324.455,0.0
52335.0,STARLINK-3814,PAYLOAD,2022-05-05 22:00:00,15.81225944,0.0001233,53.2176,46.5574,63.8428,157.0104,-0.0048328999999999,-0.00877309,0.0,0 STARLINK-3814,1 52335U 22045E   22125.91667824 -.00877309  00000-0 -48329-2 0  9990,2 52335  53.2176  46.5574 0001233  63.8428 157.0104 15.81225944  1465,6705.11,91.069,327.801,326.148,0.0
52335.0,STARLINK-3814,PAYLOAD,2022-05-06 14:00:01,15.79965156,9.78e-05,53.2175,43.2213,74.223,342.2486,-0.0050991,-0.00873345,0.0,0 STARLINK-3814,1 52335U 22045E   22126.58334491 -.00873345  00000-0 -50991-2 0  9999,2 52335  53.2175  43.2213 0000978  74.2230 342.2486 15.79965156  3602,6708.676,91.141,331.19699999999995,329.885,0.0
52335.0,STARLINK-3814,PAYLOAD,2022-05-07 12:00:00,15.78238791,0.0001136,53.2175,38.6456,78.5317,151.9716,-0.0055612,-0.00879593,0.0,0 STARLINK-3814,1 52335U 22045E   22127.50001157 -.00879593  00000-0 -55612-2 0  9998,2 52335  53.2175  38.6456 0001136  78.5317 151.9716 15.78238791  3742,6713.568,91.241,336.195,334.67,0.0
52335.0,STARLINK-3814,PAYLOAD,2022-05-07 14:00:01,15.78077252,9.73e-05,53.2173,38.2298,81.4548,262.7703,-0.0055552,-0.00872885,0.0,0 STARLINK-3814,1 52335U 22045E   22127.58334491 -.00872885  00000-0 -55552-2 0  9996,2 52335  53.2173  38.2298 0000973  81.4548 262.7703 15.78077252  1734,6714.026,91.25,336.5440000000001,335.237,0.0
52335.0,STARLINK-3814,PAYLOAD,2022-05-07 22:00:00,15.77449921,0.0001055,53.2174,36.5702,72.0588,6.5697,-0.0057341,-0.0087559,0.0,0 STARLINK-3814,1 52335U 22045E   22127.91667824 -.00875590  00000-0 -57341-2 0  9996,2 52335  53.2174  36.5702 0001055  72.0588   6.5697 15.77449921  1784,6715.806,91.287,338.379,336.962,0.0
52335.0,STARLINK-3814,PAYLOAD,2022-05-08 14:00:01,15.7618982,0.0001095,53.2175,33.2521,87.9014,177.2705,-0.0060439,-0.00872654,0.0,0 STARLINK-3814,1 52335U 22045E   22128.58334491 -.00872654  00000-0 -60439-2 0  9991,2 52335  53.2175  33.2521 0001095  87.9014 177.2705 15.76189820  3912,6719.385,91.36,341.985,340.514,0.0
52335.0,STARLINK-3814,PAYLOAD,2022-05-08 22:00:00,15.75562693,9.85e-05,53.2177,31.5973,83.3883,273.9193,-0.0062408,-0.00875994,0.0,0 STARLINK-3814,1 52335U 22045E   22128.91667824 -.00875994  00000-0 -62408-2 0  9995,2 52335  53.2177  31.5973 0000985  83.3883 273.9193 15.75562693  1945,6721.167,91.396,343.694,342.37,0.0
52335.0,STARLINK-3814,PAYLOAD,2022-05-09 14:00:01,15.74303001,0.0001148,53.2171,28.2884,80.6904,98.6884,-0.0065798,-0.00874123,0.0,0 STARLINK-3814,1 52335U 22045E   22129.58335648 -.00874123  00000-0 -65798-2 0  9993,2 52335  53.2171  28.2884 0001148  80.6904  98.6884 15.74303001  4070,6724.752,91.469,347.389,345.845,0.0
52335.0,STARLINK-3814,PAYLOAD,2022-05-09 22:00:00,15.73519165,0.0001250999999999,53.2173,26.6384,80.4068,188.8013,-0.0032497,-0.00439643,0.0,0 STARLINK-3814,1 52335U 22045E   22129.91667824 -.00439643  00000-0 -32497-2 0  9998,2 52335  53.2173  26.6384 0001251  80.4068 188.8013 15.73519165  2100,6726.985,91.515,349.69199999999995,348.009,0.0
52335.0,STARLINK-3814,PAYLOAD,2022-05-10 08:00:01,15.73206321,0.000108,53.2172,24.5759,107.0175,3.5371,-2.6289e-05,-4.308e-05,0.0,0 STARLINK-3814,1 52335U 22045E   22130.33334491 -.00004308  00000-0 -26289-4 0  9997,2 52335  53.2172  24.5759 0001080 107.0175   3.5371 15.73206321  4195,6727.877,91.533,350.469,349.016,0.0
52335.0,STARLINK-3814,PAYLOAD,2022-05-10 14:00:01,15.73241257,0.0001256,53.2151,23.3392,95.8042,351.6162,-7.3001e-05,-0.0001087,0.0,0 STARLINK-3814,1 52335U 22045E   22130.58334491 -.00010870  00000-0 -73001-4 0  9999,2 52335  53.2151  23.3392 0001256  95.8042 351.6162 15.73241257  4231,6727.778,91.531,350.48800000000006,348.798,0.0
52335.0,STARLINK-3814,PAYLOAD,2022-05-10 18:00:00,15.73257594,0.0001142,53.2143,22.5162,96.2109,215.6732,-0.00052429,-0.00073738,0.0,0 STARLINK-3814,1 52335U 22045E   22130.75001157 -.00073738  00000-0 -52429-3 0  9990,2 52335  53.2143  22.5162 0001142  96.2109 215.6732 15.73257594  4256,6727.731,91.53,350.36400000000015,348.82800000000015,0.0
52335.0,STARLINK-3814,PAYLOAD,2022-05-11 22:00:00,15.73182952,0.0001083,53.2138,16.7439,91.225,351.9478,-5.4733e-05,-8.287e-05,0.0,0 STARLINK-3814,1 52335U 22045E   22131.91667824 -.00008287  00000-0 -54733-4 0  9996,2 52335  53.2138  16.7439 0001083  91.2250 351.9478 15.73182952  4445,6727.944,91.534,350.537,349.08,0.0
52335.0,STARLINK-3814,PAYLOAD,2022-05-12 04:00:00,15.73169644,0.0001061,53.2137,15.5075,85.5078,334.3501,0.00065949,0.00092842,0.0,0 STARLINK-3814,1 52335U 22045E   22132.16667824  .00092842  00000-0  65949-3 0  9992,2 52335  53.2137  15.5075 0001061  85.5078 334.3501 15.73169644  4486,6727.982,91.535,350.561,349.1330000000001,0.0
52335.0,STARLINK-3814,PAYLOAD,2022-05-12 14:00:01,15.73241475,0.0001155,53.214,13.4432,100.1003,160.9315,-2.2009e-05,-3.713e-05,0.0,0 STARLINK-3814,1 52335U 22045E   22132.58334491 -.00003713  00000-0 -22009-4 0  9991,2 52335  53.2140  13.4432 0001155 100.1003 160.9315 15.73241475  1307,6727.776999999999,91.531,350.4190000000001,348.865,0.0
52335.0,STARLINK-3814,PAYLOAD,2022-05-12 20:00:01,15.73252471,0.0001186,53.2142,12.2073,94.0763,143.6905,-0.00046751,-0.00065866,0.0,0 STARLINK-3814,1 52335U 22045E   22132.83334491 -.00065866  00000-0 -46751-3 0  9995,2 52335  53.2142  12.2073 0001186  94.0763 143.6905 15.73252471  4589,6727.746,91.53,350.408,348.81300000000016,0.0
52335.0,STARLINK-3814,PAYLOAD,2022-05-12 22:00:00,15.73221102,0.000117,53.214,11.7953,90.6447,259.3732,-9.6367e-05,-0.00014134,0.0,0 STARLINK-3814,1 52335U 22045E   22132.91667824 -.00014134  00000-0 -96367-4 0  9994,2 52335  53.2140  11.7953 0001170  90.6447 259.3732 15.73221102  1309,6727.835,91.532,350.487,348.913,0.0
52335.0,STARLINK-3814,PAYLOAD,2022-05-13 14:00:01,15.73178691,0.0001095,53.2135,8.4944,105.043,62.8302,-9.0518e-05,-0.00013291,0.0,0 STARLINK-3814,1 52335U 22045E   22133.58334491 -.00013291  00000-0 -90518-4 0  9994,2 52335  53.2135   8.4944 0001095 105.0430  62.8302 15.73178691  4706,6727.956,91.534,350.55800000000005,349.084,0.0
52335.0,STARLINK-3814,PAYLOAD,2022-05-13 22:00:00,15.7318207,9.69e-05,53.2136,6.847,93.5871,163.1865,3.3729e-05,4.113e-05,0.0,0 STARLINK-3814,1 52335U 22045E   22133.91667824  .00004113  00000-0  33729-4 0  9992,2 52335  53.2136   6.8470 0000969  93.5871 163.1865 15.73182070  1300,6727.946,91.534,350.463,349.159,0.0
52335.0,STARLINK-3814,PAYLOAD,2022-05-14 06:00:00,15.73184487,9.88e-05,53.2137,5.1971,91.2562,254.4254,-6.2628e-05,-9.393e-05,0.0,0 STARLINK-3814,1 52335U 22045E   22134.25001157 -.00009393  00000-0 -62628-4 0  9998,2 52335  53.2137   5.1971 0000988  91.2562 254.4254 15.73184487  4800,6727.939,91.534,350.469,349.14,0.0
52335.0,STARLINK-3814,PAYLOAD,2022-05-14 14:00:01,15.73184381,0.0001066,53.2139,3.5458,102.7537,331.8531,0.00070739,0.00099776,0.0,0 STARLINK-3814,1 52335U 22045E   22134.58334491  .00099776  00000-0  70739-3 0  9997,2 52335  53.2139   3.5458 0001066 102.7537 331.8531 15.73184381  4869,6727.94,91.534,350.522,349.088,0.0
52335.0,STARLINK-3814,PAYLOAD,2022-05-14 22:00:00,15.73270452,9.33e-05,53.2137,1.8981,88.9578,74.6128,-0.00038044,-0.0005382999999999,0.0,0 STARLINK-3814,1 52335U 22045E   22134.91667824 -.00053830  00000-0 -38044-3 0  9999,2 52335  53.2137   1.8981 0000933  88.9578  74.6128 15.73270452  1306,6727.694,91.529,350.18699999999984,348.932,0.0
52335.0,STARLINK-3814,PAYLOAD,2022-05-15 06:00:00,15.73283164,7.709999999999999e-05,53.213,0.2479,92.0967,160.4472,-0.00083465,-0.00116555,0.0,0 STARLINK-3814,1 52335U 22045E   22135.25001157 -.00116555  00000-0 -83465-3 0  9999,2 52335  53.2130   0.2479 0000771  92.0967 160.4472 15.73283164  4967,6727.658,91.528,350.042,349.004,0.0
52335.0,STARLINK-3814,PAYLOAD,2022-05-15 14:00:01,15.73308713,6.82e-05,53.2148,358.5945,96.8682,244.7034,-0.0024515,-0.0033292,0.0,0 STARLINK-3814,1 52335U 22045E   22135.58335648 -.00332920  00000-0 -24515-2 0  9996,2 52335  53.2148 358.5945 0000682  96.8682 244.7034 15.73308713  1303,6727.585,91.527,349.909,348.991,0.0
52335.0,STARLINK-3814,PAYLOAD,2022-05-15 22:00:00,15.72871157,0.0001028,53.2163,356.9456,78.3302,352.1578,-0.00014136,-0.00020131,0.0,0 STARLINK-3814,1 52335U 22045E   22135.91667824 -.00020131  00000-0 -14136-3 0  9994,2 52335  53.2163 356.9456 0001028  78.3302 352.1578 15.72871157  5079,6728.833000000001,91.552,351.39,350.006,0.0
52335.0,STARLINK-3814,PAYLOAD,2022-05-16 06:00:02,15.72910138,0.0001164,53.2173,355.2941,106.2139,52.8825,-0.0056596,-0.00721078,0.0,0 STARLINK-3814,1 52335U 22045E   22136.25002315 -.00721078  00000-0 -56596-2 0  9993,2 52335  53.2173 355.2941 0001164 106.2139  52.8825 15.72910138  5129,6728.722,91.55,351.37,349.80300000000005,0.0
52335.0,STARLINK-3814,PAYLOAD,2022-05-16 14:00:01,15.72398992,0.0001213,53.2176,353.6436,98.2986,149.0004,-0.0057568,-0.00717835,0.0,0 STARLINK-3814,1 52335U 22045E   22136.58334491 -.00717835  00000-0 -57568-2 0  9998,2 52335  53.2176 353.6436 0001213  98.2986 149.0004 15.72398992  1300,6730.18,91.58,352.861,351.228,0.0
